{"type": "FeatureCollection", "features": [ {"type": "Feature", "properties": {"norad_id": 66938, "name": "STARLINK-36155", "group": "last-30-days", "lat": 14.316192496836454, "lon": 46.15958627824348, "alt_km": 298.596046880788, "timestamp": "2025-12-15T19:00:44.079645+00:00", "meta": {"OBJECT_NAME": "STARLINK-36155", "OBJECT_ID": "2025-286P", "EPOCH": "2025-12-14T20:00:06.000192", "MEAN_MOTION": 15.93339266, "ECCENTRICITY": 7.142e-05, "INCLINATION": 53.1564, "RA_OF_ASC_NODE": 40.0139, "ARG_OF_PERICENTER": 77.8731, "MEAN_ANOMALY": 201.8629, "EPHEMERIS_TYPE": 0, "CLASSIFICATION_TYPE": "U", "NORAD_CAT_ID": 66938, "ELEMENT_SET_NO": 999, "REV_AT_EPOCH": 233, "BSTAR": -0.0038258672, "MEAN_MOTION_DOT": -0.01390514, "MEAN_MOTION_DDOT": 0.0005645016}, "tle": {"line1": "1 66938U 25286P   25348.83340278 -.01390514  56450-3 -38259-2 0  9999", "line2": "2 66938  53.1564  40.0139 0000714  77.8731 201.8629 15.93339266  2333"}}, "geometry": {"type": "Point", "coordinates": [46.15958627824348, 14.316192496836454]}}, {"type": "Feature", "properties": {"norad_id": 66939, "name": "STARLINK-36154", "group": "last-30-days", "lat": 17.493222503774817, "lon": 48.78905945528671, "alt_km": 297.8116908844504, "timestamp": "2025-12-15T19:00:44.079655+00:00", "meta": {"OBJECT_NAME": "STARLINK-36154", "OBJECT_ID": "2025-286Q", "EPOCH": "2025-12-14T20:00:06.000192", "MEAN_MOTION": 15.93491079, "ECCENTRICITY": 7.413e-05, "INCLINATION": 53.1563, "RA_OF_ASC_NODE": 40.0063, "ARG_OF_PERICENTER": 72.7516, "MEAN_ANOMALY": 210.6706, "EPHEMERIS_TYPE": 0, "CLASSIFICATION_TYPE": "U", "NORAD_CAT_ID": 66939, "ELEMENT_SET_NO": 999, "REV_AT_EPOCH": 233, "BSTAR": -0.0039290573, "MEAN_MOTION_DOT": -0.01438887, "MEAN_MOTION_DDOT": 0.0006017762}, "tle": {"line1": "1 66939U 25286Q   25348.83340278 -.01438887  60178-3 -39291-2 0  9995", "line2": "2 66939  53.1563  40.0063 0000741  72.7516 210.6706 15.93491079  2339"}}, "geometry": {"type": "Point", "coordinates": [48.78905945528671, 17.493222503774817]}}, {"type": "Feature", "properties": {"norad_id": 66940, "name": "STARLINK-36121", "group": "last-30-days", "lat": 18.887749786885205, "lon": 49.98072250763986, "alt_km": 297.4780562331807, "timestamp": "2025-12-15T19:00:44.079665+00:00", "meta": {"OBJECT_NAME": "STARLINK-36121", "OBJECT_ID": "2025-286R", "EPOCH": "2025-12-14T20:00:06.000192", "MEAN_MOTION": 15.93558007, "ECCENTRICITY": 7.047e-05, "INCLINATION": 53.1562, "RA_OF_ASC_NODE": 40.0027, "ARG_OF_PERICENTER": 70.3038, "MEAN_ANOMALY": 214.7457, "EPHEMERIS_TYPE": 0, "CLASSIFICATION_TYPE": "U", "NORAD_CAT_ID": 66940, "ELEMENT_SET_NO": 999, "REV_AT_EPOCH": 233, "BSTAR": -0.003971118, "MEAN_MOTION_DOT": -0.01459177, "MEAN_MOTION_DDOT": 0.00061778389}, "tle": {"line1": "1 66940U 25286R   25348.83340278 -.01459177  61778-3 -39711-2 0  9996", "line2": "2 66940  53.1562  40.0027 0000704  70.3038 214.7457 15.93558007  2335"}}, "geometry": {"type": "Point", "coordinates": [49.98072250763986, 18.887749786885205]}}, {"type": "Feature", "properties": {"norad_id": 66941, "name": "STARLINK-36088", "group": "last-30-days", "lat": 16.01104025287656, "lon": 47.548438657219556, "alt_km": 298.12588543461425, "timestamp": "2025-12-15T19:00:44.079691+00:00", "meta": {"OBJECT_NAME": "STARLINK-36088", "OBJECT_ID": "2025-286S", "EPOCH": "2025-12-14T20:00:06.000192", "MEAN_MOTION": 15.93422535, "ECCENTRICITY": 7.922e-05, "INCLINATION": 53.1562, "RA_OF_ASC_NODE": 40.0096, "ARG_OF_PERICENTER": 69.5061, "MEAN_ANOMALY": 212.2043, "EPHEMERIS_TYPE": 0, "CLASSIFICATION_TYPE": "U", "NORAD_CAT_ID": 66941, "ELEMENT_SET_NO": 999, "REV_AT_EPOCH": 233, "BSTAR": -0.0038991892, "MEAN_MOTION_DOT": -0.01422998, "MEAN_MOTION_DDOT": 0.00058929296}, "tle": {"line1": "1 66941U 25286S   25348.83340278 -.01422998  58929-3 -38992-2 0  9992", "line2": "2 66941  53.1562  40.0096 0000792  69.5061 212.2043 15.93422535  2335"}}, "geometry": {"type": "Point", "coordinates": [47.548438657219556, 16.01104025287656]}}, {"type": "Feature", "properties": {"norad_id": 66942, "name": "STARLINK-36100", "group": "last-30-days", "lat": 20.340248625140273, "lon": 51.250854955492294, "alt_km": 297.19791818311296, "timestamp": "2025-12-15T19:00:44.079705+00:00", "meta": {"OBJECT_NAME": "STARLINK-36100", "OBJECT_ID": "2025-286T", "EPOCH": "2025-12-14T20:00:06.000192", "MEAN_MOTION": 15.93629478, "ECCENTRICITY": 6.81e-05, "INCLINATION": 53.1561, "RA_OF_ASC_NODE": 39.9992, "ARG_OF_PERICENTER": 74.9962, "MEAN_ANOMALY": 211.7644, "EPHEMERIS_TYPE": 0, "CLASSIFICATION_TYPE": "U", "NORAD_CAT_ID": 66942, "ELEMENT_SET_NO": 999, "REV_AT_EPOCH": 226, "BSTAR": -0.0040239023, "MEAN_MOTION_DOT": -0.01483848, "MEAN_MOTION_DDOT": 0.00063746937}, "tle": {"line1": "1 66942U 25286T   25348.83340278 -.01483848  63747-3 -40239-2 0  9995", "line2": "2 66942  53.1561  39.9992 0000681  74.9962 211.7644 15.93629478  2262"}}, "geometry": {"type": "Point", "coordinates": [51.250854955492294, 20.340248625140273]}}, {"type": "Feature", "properties": {"norad_id": 66943, "name": "STARLINK-36109", "group": "last-30-days", "lat": 22.056203776656957, "lon": 52.79351287241394, "alt_km": 296.7797646767249, "timestamp": "2025-12-15T19:00:44.079717+00:00", "meta": {"OBJECT_NAME": "STARLINK-36109", "OBJECT_ID": "2025-286U", "EPOCH": "2025-12-14T20:00:06.000192", "MEAN_MOTION": 15.93704259, "ECCENTRICITY": 6.32e-05, "INCLINATION": 53.1561, "RA_OF_ASC_NODE": 39.9949, "ARG_OF_PERICENTER": 73.5631, "MEAN_ANOMALY": 215.2267, "EPHEMERIS_TYPE": 0, "CLASSIFICATION_TYPE": "U", "NORAD_CAT_ID": 66943, "ELEMENT_SET_NO": 999, "REV_AT_EPOCH": 226, "BSTAR": -0.0040514502, "MEAN_MOTION_DOT": -0.01499717, "MEAN_MOTION_DDOT": 0.00065048155}, "tle": {"line1": "1 66943U 25286U   25348.83340278 -.01499717  65048-3 -40515-2 0  9991", "line2": "2 66943  53.1561  39.9949 0000632  73.5631 215.2267 15.93704259  2260"}}, "geometry": {"type": "Point", "coordinates": [52.79351287241394, 22.056203776656957]}}, {"type": "Feature", "properties": {"norad_id": 66944, "name": "STARLINK-36112", "group": "last-30-days", "lat": 23.41570703260803, "lon": 54.05218287436335, "alt_km": 296.3984801395072, "timestamp": "2025-12-15T19:00:44.079727+00:00", "meta": {"OBJECT_NAME": "STARLINK-36112", "OBJECT_ID": "2025-286V", "EPOCH": "2025-12-14T20:00:06.000192", "MEAN_MOTION": 15.93767626, "ECCENTRICITY": 7.099e-05, "INCLINATION": 53.1561, "RA_OF_ASC_NODE": 39.9914, "ARG_OF_PERICENTER": 72.9594, "MEAN_ANOMALY": 217.4476, "EPHEMERIS_TYPE": 0, "CLASSIFICATION_TYPE": "U", "NORAD_CAT_ID": 66944, "ELEMENT_SET_NO": 999, "REV_AT_EPOCH": 233, "BSTAR": -0.0040802087, "MEAN_MOTION_DOT": -0.01515243, "MEAN_MOTION_DDOT": 0.00066327946}, "tle": {"line1": "1 66944U 25286V   25348.83340278 -.01515243  66328-3 -40802-2 0  9996", "line2": "2 66944  53.1561  39.9914 0000709  72.9594 217.4476 15.93767626  2330"}}, "geometry": {"type": "Point", "coordinates": [54.05218287436335, 23.41570703260803]}}, {"type": "Feature", "properties": {"norad_id": 66945, "name": "STARLINK-36110", "group": "last-30-days", "lat": 25.06280471661832, "lon": 55.62610458505832, "alt_km": 296.0349175563424, "timestamp": "2025-12-15T19:00:44.079737+00:00", "meta": {"OBJECT_NAME": "STARLINK-36110", "OBJECT_ID": "2025-286W", "EPOCH": "2025-12-14T20:00:06.000192", "MEAN_MOTION": 15.93840001, "ECCENTRICITY": 6.77e-05, "INCLINATION": 53.1559, "RA_OF_ASC_NODE": 39.9872, "ARG_OF_PERICENTER": 76.7903, "MEAN_ANOMALY": 215.6011, "EPHEMERIS_TYPE": 0, "CLASSIFICATION_TYPE": "U", "NORAD_CAT_ID": 66945, "ELEMENT_SET_NO": 999, "REV_AT_EPOCH": 233, "BSTAR": -0.0041086532, "MEAN_MOTION_DOT": -0.01531452, "MEAN_MOTION_DDOT": 0.00067681965}, "tle": {"line1": "1 66945U 25286W   25348.83340278 -.01531452  67682-3 -41087-2 0  9997", "line2": "2 66945  53.1559  39.9872 0000677  76.7903 215.6011 15.93840001  2335"}}, "geometry": {"type": "Point", "coordinates": [55.62610458505832, 25.06280471661832]}}, {"type": "Feature", "properties": {"norad_id": 66946, "name": "STARLINK-36115", "group": "last-30-days", "lat": 26.498064949958557, "lon": 57.046333682365876, "alt_km": 295.59708799698, "timestamp": "2025-12-15T19:00:44.079747+00:00", "meta": {"OBJECT_NAME": "STARLINK-36115", "OBJECT_ID": "2025-286X", "EPOCH": "2025-12-14T20:00:06.000192", "MEAN_MOTION": 15.93900857, "ECCENTRICITY": 7.108e-05, "INCLINATION": 53.156, "RA_OF_ASC_NODE": 39.9837, "ARG_OF_PERICENTER": 73.7333, "MEAN_ANOMALY": 220.3865, "EPHEMERIS_TYPE": 0, "CLASSIFICATION_TYPE": "U", "NORAD_CAT_ID": 66946, "ELEMENT_SET_NO": 999, "REV_AT_EPOCH": 233, "BSTAR": -0.0041099008, "MEAN_MOTION_DOT": -0.01536801, "MEAN_MOTION_DDOT": 0.00068157053}, "tle": {"line1": "1 66946U 25286X   25348.83340278 -.01536801  68157-3 -41099-2 0  9992", "line2": "2 66946  53.1560  39.9837 0000710  73.7333 220.3865 15.93900857  2337"}}, "geometry": {"type": "Point", "coordinates": [57.046333682365876, 26.498064949958557]}}, {"type": "Feature", "properties": {"norad_id": 66947, "name": "STARLINK-36089", "group": "last-30-days", "lat": 29.501138650172926, "lon": 60.19001361978662, "alt_km": 294.73500847471405, "timestamp": "2025-12-15T19:00:44.079757+00:00", "meta": {"OBJECT_NAME": "STARLINK-36089", "OBJECT_ID": "2025-286Y", "EPOCH": "2025-12-14T20:00:06.000192", "MEAN_MOTION": 15.94032458, "ECCENTRICITY": 7.566e-05, "INCLINATION": 53.1559, "RA_OF_ASC_NODE": 39.976, "ARG_OF_PERICENTER": 69.6894, "MEAN_ANOMALY": 228.1228, "EPHEMERIS_TYPE": 0, "CLASSIFICATION_TYPE": "U", "NORAD_CAT_ID": 66947, "ELEMENT_SET_NO": 999, "REV_AT_EPOCH": 233, "BSTAR": -0.0041328029, "MEAN_MOTION_DOT": -0.01555949, "MEAN_MOTION_DDOT": 0.00069813324}, "tle": {"line1": "1 66947U 25286Y   25348.83340278 -.01555949  69813-3 -41328-2 0  9992", "line2": "2 66947  53.1559  39.9760 0000756  69.6894 228.1228 15.94032458  2330"}}, "geometry": {"type": "Point", "coordinates": [60.19001361978662, 29.501138650172926]}}]}